#dP2020  8 26  0  0  0.00000000      97 __u+U IGS14 FIT  IAC
## 2120 259200.00000000   900.00000000 59087 0.0000000000000
+  122   C01C02C03C04C05C06C07C08C09C10C11C12C13C14C16C19C20
+        C21C22C23C24C25C26C27C28C29C30C32C33C34C35C36C37C38
+        C39C40C43C44C45C46C60E01E02E03E04E05E07E08E09E11E12
+        E13E14E15E18E19E21E24E25E26E27E30E31E33E36G01G02G03
+        G04G05G06G07G08G09G10G11G12G13G15G16G17G18G19G20G21
+        G22G24G25G26G27G28G29G30G31G32J01J02J03J07R01R02R03
+        R04R05R07R08R09R11R12R13R14R15R16R17R18R19R20R21R22
+        R23R24R26  0  0  0  0  0  0  0  0  0  0  0  0  0  0
++         0  0  0  0  0  0  0  0  0  0  0  0  0  0  0  0  0
++         0  0  0  0  0  0  0  0  0  0  0  0  0  0  0  0  0
++         0  0  0  0  0  0  0  0  0  0  0  0  0  0  0  0  0
++         0  0  0  0  0  0  0  0  0  0  0  0  0  0  0  0  0
++         0  0  0  0  0  0  0  0  0  0  0  0  0  0  0  0  0
++         0  0  0  0  0  0  0  0  0  0  0  0  0  0  0  0  0
++         0  0  0  0  0  0  0  0  0  0  0  0  0  0  0  0  0
++         0  0  0  0  0  0  0  0  0  0  0  0  0  0  0  0  0
%c M  cc GPS ccc cccc cccc cccc cccc ccccc ccccc ccccc ccccc
%c cc cc ccc ccc cccc cccc cccc cccc ccccc ccccc ccccc ccccc
%f  1.2500000  1.025000000  0.00000000000  0.000000000000000
%f  0.0000000  0.000000000  0.00000000000  0.000000000000000
%i    0    0    0    0      0      0      0      0         0
%i    0    0    0    0      0      0      0      0         0
/* INFORMATION & ANALYSIS CENTER (IAC)            FINAL DATA
/* S/V CLOCKS ARE ALIGNED TO GNSS TIME                      
/* G:C1WC2W R:C1PC2P E:C1XC5X C:C2IC6I J:C1CC2S             
/* PCV:IGS14_2118 OL/AL:FES2004  NONE     YN ORB:CoN CLK:CoN
*  2020 08 26 17 45  0.00000000
PC01 -34380.696835  24455.627909    596.427446   -196.037635
PC02   4394.513784  41904.873574   -823.261252    384.080708
PC03 -14696.123403  39501.244698  -1166.254595    800.526204
PC04 -39618.675557  14476.273021   -162.611754 999999.999999
PC05  21943.546317  35987.777372   -932.411061   -129.749048
PC06 -19772.895437  36896.854751   2558.606893    220.772414
PC07  -8137.751130  29688.287469  29245.570111     41.923301
PC08 -20501.535109  19005.865374 -31609.203112   -476.313546
PC09 -10659.821872  37379.381622  16088.627459    769.439959
PC10   4216.851664  36376.834359  21488.068066   -201.744158
PC11 -14779.620973  22496.999147  -7423.532081   -580.650987
PC12 -22080.327647  13581.291973  10409.413254    484.058539
PC13  -4338.875675  22860.707155 -35108.597369    615.796110
PC14  -4121.957752  22809.388530 -15558.917067    884.803883
PC16 -16959.821030  37995.244309   6170.376205   -589.076206
PC19  -2884.541624 -26645.693622   7760.039848    523.760367
PC20   9788.565373 -16158.921210  20539.394981   -837.796302
PC21 -17118.496672  -4387.909679 -21578.422490   -669.590786
PC22 -14163.675655 -21896.706341  -9889.758418   -764.681758
PC23  20185.208204  14230.914195  13011.608067   -852.033404
PC24 -18916.103618   9074.398628  18414.943461   -736.666018
PC25   1871.467772  16610.625889  22345.701624   -735.058582
PC26 -27458.749782  -2446.535824   4441.451214    806.967135
PC27  21247.281771  -4842.301705 -17457.442149    388.318638
PC28   9912.468168  12519.284551 -22886.441844   -177.918625
PC29   6279.765580 -22733.606636  14904.341716    275.263081
PC30  19502.929035 -19854.499314  -2161.278923    366.776024
PC32  17182.474542   4291.830685  21578.874286   -890.308128
PC33   2985.250159  26639.894725  -7791.028903   -794.050298
PC34 -19314.181994  20064.517905   1614.951171   -869.076824
PC35 -10193.124862 -12403.774902  22821.606733   -683.719944
PC36  -1219.025038 -16595.663453 -22366.883706   -914.089236
PC37  27412.499598   3575.776272  -3740.021236   -912.913981
PC38 -17475.006268  22035.449487 -31470.805250     96.847811
PC39 -15243.971008  38946.286587   4881.275546     21.424531
PC40    566.047995  33856.730684  25270.868582     75.005862
PC43  -6642.690305  22822.743137 -14614.224784   -344.813891
PC44 -21072.666722   5279.480451  17493.740455   -252.259202
PC45 -20285.922179 -14071.542790 -13007.099408 999999.999999
PC46  18304.508421  -9398.581553 -18819.848271    668.680592
PC60   7289.141609  41541.289901   -292.297271 999999.999999
PE01 -11590.774699  11775.017536  24568.134630   -927.710434
PE02  11489.889350 -11850.566901 -24563.216419    157.171101
PE03  12791.451978 -23221.902035  13145.967084   -335.996265
PE04   -786.045939  29194.636815   4840.526677   -594.394283
PE05  17446.678971  -3556.530596  23646.919161   -351.372003
PE07 -11877.574414 -18010.912789 -20254.189018   -427.842432
PE08    469.163425 -29146.869170  -5088.982758   6129.543641
PE09  11921.382137  17840.927355  20402.065294   5951.157302
PE11  17660.294762   8538.984293 -22181.003115   5064.059740
PE12  -3481.195386  17967.543535 -23266.607315   5636.582995
PE13 -17440.024883  -8568.602151  22328.962971    403.268931
PE14 -13071.436916  24719.077176   1118.111279  -1133.812923
PE15   3229.231380 -17870.199472  23374.714892    854.867210
PE18  20461.011738 -16024.049251 -13348.821305  -1239.713685
PE19 -13668.315210  21614.137087 -14902.679751     62.872515
PE21 -24021.202930  -4781.456438  16624.910337   -617.965736
PE24  22431.547576  19237.613028   1564.977729   5276.965913
PE25  24071.499574   4931.890257 -16495.026055   -515.690138
PE26 -27983.912385   5916.495831   7642.463131   2798.276311
PE27 -22718.565359 -18937.639941  -1183.062858    147.430554
PE30  -7456.290663 -21864.486613 -18510.915861   3634.692747
PE31   8062.534341  21902.029642  18225.107363   -473.808469
PE33 -22006.048686  16669.582546 -10682.089117   -463.324880
PE36  27858.812848  -5756.722052  -8174.765939    515.679649
PG01   5947.546352  14087.722737 -21987.137210     35.395730
PG02  16313.442869 -14561.037571  15693.645627   -507.748222
PG03  11536.941978  22963.739484  -6998.030481   -281.342688
PG04   2554.971452  21186.424468  15798.416263   -128.961303
PG05   5663.446825 -15855.236458  20348.415806    -19.697616
PG06  25550.480771  -6137.989353   4053.105695   -319.694008
PG07  22094.171382   7104.749626  13670.588142   -358.861329
PG08  -5189.187758  25104.931003  -6394.743690    -45.812403
PG09  11714.497426  11065.947411  21056.323571   -276.512377
PG10 -19367.843428  -5456.495442 -17374.890422   -438.157475
PG11  -3338.948916  19515.701954 -18335.102185   -181.788822
PG12  -9060.067999 -23742.968860  -8215.338620     75.454166
PG13  13292.831585 -22924.842348    208.967550     39.420642
PG15   1751.817266 -25378.484487  -7258.192409   -207.950316
PG16  -4874.111899  16904.357366  19532.038121   -200.830538
PG17  17123.241788  -6957.087356 -18634.448218    316.805218
PG18 -22280.428891  -6577.255748  12900.509721    278.013726
PG19  18121.095201 -13236.186385 -14456.786189   -113.244617
PG20 -21664.170919 -13780.277942  -7347.932054    526.926288
PG21 -21575.947552  11276.775577  -9525.642471     40.127303
PG22   6477.334102  21870.933074 -13529.725702   -760.603866
PG24  -3433.599426 -15480.243957 -21513.479876    -17.698174
PG25 -17184.234063 -20337.750807   1805.516326     40.515966
PG26 -14864.042527   6013.500863  21170.219628    268.110236
PG27 -12464.902433  22840.288915   4190.430196   -380.656709
PG28  17937.681936   5429.633900 -18177.496013    685.465660
PG29  -7814.360607 -14846.844427  20536.722586   -181.276350
PG30  26380.536074    310.844886   4009.934800   -289.842953
PG31 -25272.474976   6767.892321   5778.451478    -64.699246
PG32 -17235.890488   8158.225199 -18339.972896    338.077392
PJ01 -18779.010579  28241.209732 -20477.522595   -184.992673
PJ02 -27730.902159  20129.952937  29442.400618     -2.849446
PJ03 -33432.014686  25540.823008   8535.565781     -0.692263
PJ07 -25389.950696  33673.072374    -24.222660     -0.011192
PR01  -1392.588940 -25095.435759   4308.263517     66.633578
PR02  -9580.242664 -17448.861857 -15948.387032    442.787898
PR03 -10948.172193    589.842919 -22993.085490     20.942488
PR04  -5860.968614  18088.106636 -16977.743259     61.115950
PR05   2325.876986  25353.858655  -1358.400870     56.488669
PR07  10886.066911  -1353.296888  23062.349115    -39.646341
PR08   6004.927447 -18083.271858  17018.752997    -54.220737
PR09  22976.993460  10910.631295   2408.307719    151.106797
PR11  10283.262416  -7350.825002 -22142.050619    -35.442489
PR12  -7226.482267 -13558.137011 -20333.114375    158.669530
PR13 -21262.391686 -12304.940670  -6863.458226    -42.977240
PR14 -22682.169934  -3889.527517  11000.989747     54.870398
PR15 -11021.254089   6704.141111  22032.241751    106.981140
PR16   8007.065929  13631.740837  19964.181329     -5.727199
PR17 -20519.998678   7874.625109  12989.454669    352.895329
PR18 -19313.537869  16233.657472  -3589.435296     47.179981
PR19  -8734.448710  15890.283192 -17952.187682   -108.486586
PR20   9627.130528   5718.669141 -22920.352964   -420.259102
PR21  20734.487890  -8500.827426 -12156.885303   -147.812986
PR22  18936.753730 -16468.825414   4791.532948    -70.010272
PR23   1836.842030 -13345.584646  21645.701388    327.887464
PR24 -10548.867192  -5507.293103  22575.653506     11.077243
PR26   5085.820794   9177.831845 -23243.342089   -362.175051
EOF
